IDEFIX & ARIANE 42P R/B 
1 27422U 02021B   26005.56685244  .00000504  00000+0  20811-3 0  9998
2 27422  98.5811 304.9519 0012267  18.5151 341.6476 14.30972505234995
AQUA                    
1 27424U 02022A   26004.96787593  .00001598  00000+0  32997-3 0  9996
2 27424  98.4069 331.2279 0002002  90.2377   0.6092 14.61798176259425
CZ-4B R/B               
1 27432U 02024C   26005.63487366  .00000101  00000+0  75053-4 0  9997
2 27432  98.8960  59.3190 0049854 201.1542 272.8218 14.14533981220320
MIDORI II (ADEOS-II)    
1 27597U 02056A   26005.58820606  .00000524  00000+0  22392-3 0  9992
2 27597  98.7666 323.6738 0001320 131.8771 228.2523 14.29228242201283
H-2A R/B                
1 27601U 02056E   26005.64044247  .00000629  00000+0  23528-3 0  9992
2 27601  98.3096 328.4500 0070192 350.4934 182.2908 14.33703622205077
CZ-4B R/B               
1 28059U 03049C   26005.52839755  .00000686  00000+0  16863-3 0  9993
2 28059  98.6804 357.9933 0049255  64.9830 295.6469 14.54938703177410
CZ-2C R/B               
1 28222U 04012C   26005.59100245  .00057900  00000+0  77493-3 0  9995
2 28222  97.7372  65.2126 0016699 179.4942 180.6333 15.57667511194431
SL-16 R/B               
1 28353U 04021B   26005.45193766  .00000358  00000+0  21120-3 0  9996
2 28353  71.0018   5.2021 0003809 160.7109 199.4158 14.14588746113891
CZ-4B R/B               
1 28415U 04035C   26005.60183463  .00011391  00000+0  41497-3 0  9998
2 28415  97.3574  40.6305 0032568 189.6317 170.4302 15.27847912170274
CZ-2C R/B               
1 28480U 04046B   26005.37868801  .00000454  00000+0  18411-3 0  9990
2 28480  98.1999 284.2893 0139191 342.5748  17.0683 14.26960084 99476
ARIANE 5 R/B            
1 28499U 04049H   26005.50478244  .00001782  00000+0  20274-3 0  9991
2 28499  98.2533 171.6415 0084087 195.0940 164.7764 14.85094733136418
CZ-2D R/B               
1 28738U 05024B   26005.54813058  .00041230  00000+0  61707-3 0  9999
2 28738  97.3619  18.6438 0003079 240.1670 119.9278 15.54871184129951
