CCSDS_OMM_VERS = 2.0
CREATION_DATE  = 
ORIGINATOR     = 

OBJECT_NAME    = IDEFIX & ARIANE 42P R/B
OBJECT_ID      = 2002-021B
CENTER_NAME    = EARTH
REF_FRAME      = TEME
TIME_SYSTEM    = UTC
MEAN_ELEMENT_THEORY = SGP/SGP4

EPOCH          = 2026-01-05T13:36:16.050816
MEAN_MOTION    = 14.30972505
ECCENTRICITY   = .00122675
INCLINATION    = 98.5811
RA_OF_ASC_NODE = 304.9519
ARG_OF_PERICENTER = 18.5151
MEAN_ANOMALY   = 341.6476

EPHEMERIS_TYPE = 0
CLASSIFICATION_TYPE = U
NORAD_CAT_ID   = 27422
ELEMENT_SET_NO = 999
REV_AT_EPOCH   = 23499
BSTAR          = .20810527E-3
MEAN_MOTION_DOT = .504E-5
MEAN_MOTION_DDOT = 0

CCSDS_OMM_VERS = 2.0
CREATION_DATE  = 
ORIGINATOR     = 

OBJECT_NAME    = AQUA
OBJECT_ID      = 2002-022A
CENTER_NAME    = EARTH
REF_FRAME      = TEME
TIME_SYSTEM    = UTC
MEAN_ELEMENT_THEORY = SGP/SGP4

EPOCH          = 2026-01-04T23:13:44.480352
MEAN_MOTION    = 14.61798176
ECCENTRICITY   = .00020022
INCLINATION    = 98.4069
RA_OF_ASC_NODE = 331.2279
ARG_OF_PERICENTER = 90.2377
MEAN_ANOMALY   = 0.6092

EPHEMERIS_TYPE = 0
CLASSIFICATION_TYPE = U
NORAD_CAT_ID   = 27424
ELEMENT_SET_NO = 999
REV_AT_EPOCH   = 25942
BSTAR          = .32996806E-3
MEAN_MOTION_DOT = .1598E-4
MEAN_MOTION_DDOT = 0

CCSDS_OMM_VERS = 2.0
CREATION_DATE  = 
ORIGINATOR     = 

OBJECT_NAME    = CZ-4B R/B
OBJECT_ID      = 2002-024C
CENTER_NAME    = EARTH
REF_FRAME      = TEME
TIME_SYSTEM    = UTC
MEAN_ELEMENT_THEORY = SGP/SGP4

EPOCH          = 2026-01-05T15:14:13.084224
MEAN_MOTION    = 14.14533981
ECCENTRICITY   = .00498547
INCLINATION    = 98.8960
RA_OF_ASC_NODE = 59.3190
ARG_OF_PERICENTER = 201.1542
MEAN_ANOMALY   = 272.8218

EPHEMERIS_TYPE = 0
CLASSIFICATION_TYPE = U
NORAD_CAT_ID   = 27432
ELEMENT_SET_NO = 999
REV_AT_EPOCH   = 22032
BSTAR          = .75053068E-4
MEAN_MOTION_DOT = .101E-5
MEAN_MOTION_DDOT = 0

CCSDS_OMM_VERS = 2.0
CREATION_DATE  = 
ORIGINATOR     = 

OBJECT_NAME    = MIDORI II (ADEOS-II)
OBJECT_ID      = 2002-056A
CENTER_NAME    = EARTH
REF_FRAME      = TEME
TIME_SYSTEM    = UTC
MEAN_ELEMENT_THEORY = SGP/SGP4

EPOCH          = 2026-01-05T14:07:01.003584
MEAN_MOTION    = 14.29228242
ECCENTRICITY   = .00013206
INCLINATION    = 98.7666
RA_OF_ASC_NODE = 323.6738
ARG_OF_PERICENTER = 131.8771
MEAN_ANOMALY   = 228.2523

EPHEMERIS_TYPE = 0
CLASSIFICATION_TYPE = U
NORAD_CAT_ID   = 27597
ELEMENT_SET_NO = 999
REV_AT_EPOCH   = 20128
BSTAR          = .22391883E-3
MEAN_MOTION_DOT = .524E-5
MEAN_MOTION_DDOT = 0

CCSDS_OMM_VERS = 2.0
CREATION_DATE  = 
ORIGINATOR     = 

OBJECT_NAME    = H-2A R/B
OBJECT_ID      = 2002-056E
CENTER_NAME    = EARTH
REF_FRAME      = TEME
TIME_SYSTEM    = UTC
MEAN_ELEMENT_THEORY = SGP/SGP4

EPOCH          = 2026-01-05T15:22:14.229408
MEAN_MOTION    = 14.33703622
ECCENTRICITY   = .0070192
INCLINATION    = 98.3096
RA_OF_ASC_NODE = 328.4500
ARG_OF_PERICENTER = 350.4934
MEAN_ANOMALY   = 182.2908

EPHEMERIS_TYPE = 0
CLASSIFICATION_TYPE = U
NORAD_CAT_ID   = 27601
ELEMENT_SET_NO = 999
REV_AT_EPOCH   = 20507
BSTAR          = .23527911E-3
MEAN_MOTION_DOT = .629E-5
MEAN_MOTION_DDOT = 0

CCSDS_OMM_VERS = 2.0
CREATION_DATE  = 
ORIGINATOR     = 

OBJECT_NAME    = CZ-4B R/B
OBJECT_ID      = 2003-049C
CENTER_NAME    = EARTH
REF_FRAME      = TEME
TIME_SYSTEM    = UTC
MEAN_ELEMENT_THEORY = SGP/SGP4

EPOCH          = 2026-01-05T12:40:53.548320
MEAN_MOTION    = 14.54938703
ECCENTRICITY   = .00492559
INCLINATION    = 98.6804
RA_OF_ASC_NODE = 357.9933
ARG_OF_PERICENTER = 64.9830
MEAN_ANOMALY   = 295.6469

EPHEMERIS_TYPE = 0
CLASSIFICATION_TYPE = U
NORAD_CAT_ID   = 28059
ELEMENT_SET_NO = 999
REV_AT_EPOCH   = 17741
BSTAR          = .1686326E-3
MEAN_MOTION_DOT = .686E-5
MEAN_MOTION_DDOT = 0

CCSDS_OMM_VERS = 2.0
CREATION_DATE  = 
ORIGINATOR     = 

OBJECT_NAME    = CZ-2C R/B
OBJECT_ID      = 2004-012C
CENTER_NAME    = EARTH
REF_FRAME      = TEME
TIME_SYSTEM    = UTC
MEAN_ELEMENT_THEORY = SGP/SGP4

EPOCH          = 2026-01-05T14:11:02.611680
MEAN_MOTION    = 15.57667511
ECCENTRICITY   = .00166997
INCLINATION    = 97.7372
RA_OF_ASC_NODE = 65.2126
ARG_OF_PERICENTER = 179.4942
MEAN_ANOMALY   = 180.6333

EPHEMERIS_TYPE = 0
CLASSIFICATION_TYPE = U
NORAD_CAT_ID   = 28222
ELEMENT_SET_NO = 999
REV_AT_EPOCH   = 19443
BSTAR          = .77492963E-3
MEAN_MOTION_DOT = .579E-3
MEAN_MOTION_DDOT = 0

CCSDS_OMM_VERS = 2.0
CREATION_DATE  = 
ORIGINATOR     = 

OBJECT_NAME    = SL-16 R/B
OBJECT_ID      = 2004-021B
CENTER_NAME    = EARTH
REF_FRAME      = TEME
TIME_SYSTEM    = UTC
MEAN_ELEMENT_THEORY = SGP/SGP4

EPOCH          = 2026-01-05T10:50:47.413824
MEAN_MOTION    = 14.14588746
ECCENTRICITY   = .00038099
INCLINATION    = 71.0018
RA_OF_ASC_NODE = 5.2021
ARG_OF_PERICENTER = 160.7109
MEAN_ANOMALY   = 199.4158

EPHEMERIS_TYPE = 0
CLASSIFICATION_TYPE = U
NORAD_CAT_ID   = 28353
ELEMENT_SET_NO = 999
REV_AT_EPOCH   = 11389
BSTAR          = .21119976E-3
MEAN_MOTION_DOT = .358E-5
MEAN_MOTION_DDOT = 0

CCSDS_OMM_VERS = 2.0
CREATION_DATE  = 
ORIGINATOR     = 

OBJECT_NAME    = CZ-4B R/B
OBJECT_ID      = 2004-035C
CENTER_NAME    = EARTH
REF_FRAME      = TEME
TIME_SYSTEM    = UTC
MEAN_ELEMENT_THEORY = SGP/SGP4

EPOCH          = 2026-01-05T14:26:38.512032
MEAN_MOTION    = 15.27847912
ECCENTRICITY   = .00325687
INCLINATION    = 97.3574
RA_OF_ASC_NODE = 40.6305
ARG_OF_PERICENTER = 189.6317
MEAN_ANOMALY   = 170.4302

EPHEMERIS_TYPE = 0
CLASSIFICATION_TYPE = U
NORAD_CAT_ID   = 28415
ELEMENT_SET_NO = 999
REV_AT_EPOCH   = 17027
BSTAR          = .4149655E-3
MEAN_MOTION_DOT = .11391E-3
MEAN_MOTION_DDOT = 0

CCSDS_OMM_VERS = 2.0
CREATION_DATE  = 
ORIGINATOR     = 

OBJECT_NAME    = CZ-2C R/B
OBJECT_ID      = 2004-046B
CENTER_NAME    = EARTH
REF_FRAME      = TEME
TIME_SYSTEM    = UTC
MEAN_ELEMENT_THEORY = SGP/SGP4

EPOCH          = 2026-01-05T09:05:18.644064
MEAN_MOTION    = 14.26960084
ECCENTRICITY   = .01391917
INCLINATION    = 98.1999
RA_OF_ASC_NODE = 284.2893
ARG_OF_PERICENTER = 342.5748
MEAN_ANOMALY   = 17.0683

EPHEMERIS_TYPE = 0
CLASSIFICATION_TYPE = U
NORAD_CAT_ID   = 28480
ELEMENT_SET_NO = 999
REV_AT_EPOCH   = 9947
BSTAR          = .18411216E-3
MEAN_MOTION_DOT = .454E-5
MEAN_MOTION_DDOT = 0

CCSDS_OMM_VERS = 2.0
CREATION_DATE  = 
ORIGINATOR     = 

OBJECT_NAME    = ARIANE 5 R/B
OBJECT_ID      = 2004-049H
CENTER_NAME    = EARTH
REF_FRAME      = TEME
TIME_SYSTEM    = UTC
MEAN_ELEMENT_THEORY = SGP/SGP4

EPOCH          = 2026-01-05T12:06:53.202816
MEAN_MOTION    = 14.85094733
ECCENTRICITY   = .00840874
INCLINATION    = 98.2533
RA_OF_ASC_NODE = 171.6415
ARG_OF_PERICENTER = 195.0940
MEAN_ANOMALY   = 164.7764

EPHEMERIS_TYPE = 0
CLASSIFICATION_TYPE = U
NORAD_CAT_ID   = 28499
ELEMENT_SET_NO = 999
REV_AT_EPOCH   = 13641
BSTAR          = .20273757E-3
MEAN_MOTION_DOT = .1782E-4
MEAN_MOTION_DDOT = 0

CCSDS_OMM_VERS = 2.0
CREATION_DATE  = 
ORIGINATOR     = 

OBJECT_NAME    = CZ-2D R/B
OBJECT_ID      = 2005-024B
CENTER_NAME    = EARTH
REF_FRAME      = TEME
TIME_SYSTEM    = UTC
MEAN_ELEMENT_THEORY = SGP/SGP4

EPOCH          = 2026-01-05T13:09:18.482112
MEAN_MOTION    = 15.54871184
ECCENTRICITY   = .00030797
INCLINATION    = 97.3619
RA_OF_ASC_NODE = 18.6438
ARG_OF_PERICENTER = 240.1670
MEAN_ANOMALY   = 119.9278

EPHEMERIS_TYPE = 0
CLASSIFICATION_TYPE = U
NORAD_CAT_ID   = 28738
ELEMENT_SET_NO = 999
REV_AT_EPOCH   = 12995
BSTAR          = .61706568E-3
MEAN_MOTION_DOT = .4123E-3
MEAN_MOTION_DDOT = 0

